NORAD_CAT_ID,OBJECT_NAME,OBJECT_TYPE,EPOCH,MEAN_MOTION,ECCENTRICITY,INCLINATION,RA_OF_ASC_NODE,ARG_OF_PERICENTER,MEAN_ANOMALY,BSTAR,MEAN_MOTION_DOT,MEAN_MOTION_DDOT,TLE_LINE0,TLE_LINE1,TLE_LINE2,SEMIMAJOR_AXIS,PERIOD,APOGEE,PERIGEE,DECAYED
52370.0,STARLINK-3827,PAYLOAD,2022-05-25 22:00:00,15.73202685,0.0001188,53.2129,307.4170000000001,49.7153,188.4458,0.00013206,0.00017955,0.0,0 STARLINK-3827,1 52370U 22045AR  22145.91667824  .00017955  00000-0  13206-3 0  9999,2 52370  53.2129 307.4170 0001188  49.7153 188.4458 15.73202685  6643,6727.888000000001,91.533,350.552,348.95300000000015,0.0
52370.0,STARLINK-3827,PAYLOAD,2022-05-26 06:00:00,15.73153495,0.0001113,53.2132,305.7651,58.7334,268.3707,0.0004298,0.00060011,0.0,0 STARLINK-3827,1 52370U 22045AR  22146.25001157  .00060011  00000-0  42980-3 0  9990,2 52370  53.2132 305.7651 0001113  58.7334 268.3707 15.73153495  6695,6728.028,91.536,350.642,349.144,0.0
52370.0,STARLINK-3827,PAYLOAD,2022-05-26 14:00:01,15.73248036,0.0001212,53.2134,304.1161,54.4145,1.5774,-0.00052387,-0.00073651,0.0,0 STARLINK-3827,1 52370U 22045AR  22146.58334491 -.00073651  00000-0 -52387-3 0  9994,2 52370  53.2134 304.1161 0001212  54.4145   1.5774 15.73248036  1309,6727.7580000000025,91.53,350.439,348.80800000000005,0.0
52370.0,STARLINK-3827,PAYLOAD,2022-05-26 20:00:01,15.73185232,0.0001326,53.2134,302.8801,46.5017,346.2085,-0.00021831,-0.00031126,0.0,0 STARLINK-3827,1 52370U 22045AR  22146.83334491 -.00031126  00000-0 -21831-3 0  9993,2 52370  53.2134 302.8801 0001326  46.5017 346.2085 15.73185232  6780,6727.937,91.534,350.694,348.91,0.0
52370.0,STARLINK-3827,PAYLOAD,2022-05-26 22:00:00,15.73164262,0.0001337,53.2131,302.4676,43.5182,101.4237,4.4607e-05,5.635e-05,0.0,0 STARLINK-3827,1 52370U 22045AR  22146.91667824  .00005635  00000-0  44607-4 0  9992,2 52370  53.2131 302.4676 0001337  43.5182 101.4237 15.73164262  1308,6727.996999999999,91.535,350.76199999999994,348.963,0.0
52370.0,STARLINK-3827,PAYLOAD,2022-05-27 14:09:31,15.73175715,0.0001555,53.2128,299.1333,56.2111,303.9057,2.6875e-05,3.149e-05,0.0,0 STARLINK-3827,1 52370U 22045AR  22147.58994631  .00003149  00000-0  26875-4 0  9990,2 52370  53.2128 299.1333 0001555  56.2111 303.9057 15.73175715  6917,6727.964,91.535,350.876,348.783,0.0
52370.0,STARLINK-3827,PAYLOAD,2022-05-27 16:00:00,15.73233493,0.0001453,53.2129,298.7556,49.3446,25.5842,-0.00050468,-0.00070956,0.0,0 STARLINK-3827,1 52370U 22045AR  22147.66667824 -.00070956  00000-0 -50468-3 0  9996,2 52370  53.2129 298.7556 0001453  49.3446  25.5842 15.73233493  6929,6727.8,91.531,350.642,348.68699999999984,0.0
52370.0,STARLINK-3827,PAYLOAD,2022-05-27 22:00:01,15.73160291,0.0001579,53.2128,297.5187,46.7944,4.9175,0.00060907,0.00085589,0.0,0 STARLINK-3827,1 52370U 22045AR  22147.91668981  .00085589  00000-0  60907-3 0  9994,2 52370  53.2128 297.5187 0001579  46.7944   4.9175 15.73160291  1300,6728.0080000000025,91.535,350.936,348.811,0.0
52370.0,STARLINK-3827,PAYLOAD,2022-05-28 06:00:02,15.73226849,0.0001485,53.2132,295.8668,54.2169,86.4318,0.00031649,0.00044082,0.0,0 STARLINK-3827,1 52370U 22045AR  22148.25002315  .00044082  00000-0  31649-3 0  9999,2 52370  53.2132 295.8668 0001485  54.2169  86.4318 15.73226849  7019,6727.819,91.532,350.68300000000005,348.685,0.0
52370.0,STARLINK-3827,PAYLOAD,2022-05-28 14:00:01,15.73242425,0.0001686999999999,53.2137,294.2182,52.4448,177.1204,6.888699999999999e-05,9.075e-05,0.0,0 STARLINK-3827,1 52370U 22045AR  22148.58334491  .00009075  00000-0  68887-4 0  9996,2 52370  53.2137 294.2182 0001687  52.4448 177.1204 15.73242425  1308,6727.774,91.531,350.774,348.504,0.0
52370.0,STARLINK-3827,PAYLOAD,2022-05-28 19:07:37,15.73224413,0.000169,53.2135,293.1596,47.7274,312.3889,9.5802e-05,0.00012859,0.0,0 STARLINK-3827,1 52370U 22045AR  22148.79696262  .00012859  00000-0  95802-4 0  9997,2 52370  53.2135 293.1596 0001690  47.7274 312.3889 15.73224413  7104,6727.826,91.532,350.82800000000015,348.55400000000014,0.0
52370.0,STARLINK-3827,PAYLOAD,2022-05-29 04:00:00,15.73204735,0.0001463,53.2136,291.3303,44.8042,250.4917,-0.00044745,-0.00062962,0.0,0 STARLINK-3827,1 52370U 22045AR  22149.16667824 -.00062962  00000-0 -44745-3 0  9992,2 52370  53.2136 291.3303 0001463  44.8042 250.4917 15.73204735  7154,6727.882,91.533,350.731,348.76199999999994,0.0
52370.0,STARLINK-3827,PAYLOAD,2022-05-29 13:25:23,15.73205852,0.0001829,53.2136,289.3863,61.4961,298.6243,-2.4605e-05,-4.073e-05,0.0,0 STARLINK-3827,1 52370U 22045AR  22149.55929581 -.00004073  00000-0 -24605-4 0  9999,2 52370  53.2136 289.3863 0001829  61.4961 298.6243 15.73205852  7228,6727.878000000002,91.533,350.974,348.51300000000015,0.0
52370.0,STARLINK-3827,PAYLOAD,2022-05-29 20:00:01,15.73123828,0.0001691,53.2133,288.0333,37.2936,75.7944,9.9088e-06,7.66e-06,0.0,0 STARLINK-3827,1 52370U 22045AR  22149.83334491  .00000766  00000-0  99088-5 0  9991,2 52370  53.2133 288.0333 0001691  37.2936  75.7944 15.73123828  7261,6728.111999999999,91.538,351.115,348.84,0.0
52370.0,STARLINK-3827,PAYLOAD,2022-05-29 21:02:47,15.73193846,0.0001256,53.2142,287.8148,45.6767,314.4356,-4.207e-05,-6.518e-05,0.0,0 STARLINK-3827,1 52370U 22045AR  22149.87694055 -.00006518  00000-0 -42070-4 0  9991,2 52370  53.2142 287.8148 0001256  45.6767 314.4356 15.73193846  7272,6727.913000000001,91.534,350.62300000000016,348.93300000000005,0.0
52370.0,STARLINK-3827,PAYLOAD,2022-05-30 06:00:00,15.73134701,0.0001701,53.2135,285.969,48.1812,265.9443,0.00092667,0.00131114,0.0,0 STARLINK-3827,1 52370U 22045AR  22150.25001157  .00131114  00000-0  92667-3 0  9995,2 52370  53.2135 285.9690 0001701  48.1812 265.9443 15.73134701  7327,6728.081,91.537,351.091,348.802,0.0
52370.0,STARLINK-3827,PAYLOAD,2022-05-30 14:00:01,15.73245382,0.0001899,53.214,284.321,45.29600000000001,357.7296,-0.00010249,-0.00015008,0.0,0 STARLINK-3827,1 52370U 22045AR  22150.58334491 -.00015008  00000-0 -10249-3 0  9992,2 52370  53.2140 284.3210 0001899  45.2960 357.7296 15.73245382  1300,6727.766,91.531,350.908,348.353,0.0
52370.0,STARLINK-3827,PAYLOAD,2022-05-30 19:55:00,15.73211462,0.0002491,53.2148,283.1004,45.629,314.4934,4.1667e-05,5.233e-05,0.0,0 STARLINK-3827,1 52370U 22045AR  22150.82987159  .00005233  00000-0  41667-4 0  9990,2 52370  53.2148 283.1004 0002491  45.6290 314.4934 15.73211462  7425,6727.861999999999,91.533,351.403,348.052,0.0
52370.0,STARLINK-3827,PAYLOAD,2022-05-31 06:00:02,15.73196115,0.0001631,53.2136,281.0202,40.5776,180.4204,0.00063844,0.00089931,0.0,0 STARLINK-3827,1 52370U 22045AR  22151.25002315  .00089931  00000-0  63844-3 0  9997,2 52370  53.2136 281.0202 0001631  40.5776 180.4204 15.73196115  1306,6727.906,91.533,350.869,348.6740000000001,0.0
52370.0,STARLINK-3827,PAYLOAD,2022-05-31 22:00:00,15.732383,0.000185,53.2132,277.7231,29.4809,9.3739,7.1247e-05,9.406e-05,0.0,0 STARLINK-3827,1 52370U 22045AR  22151.91667824  .00009406  00000-0  71247-4 0  9998,2 52370  53.2132 277.7231 0001850  29.4809   9.3739 15.73238300  7594,6727.786,91.531,350.896,348.406,0.0
52370.0,STARLINK-3827,PAYLOAD,2022-06-01 11:33:28,15.73228965,0.0001843,53.2144,274.9264,43.8216,316.295,3.4871e-05,4.282e-05,0.0,0 STARLINK-3827,1 52370U 22045AR  22152.48158471  .00004282  00000-0  34871-4 0  9993,2 52370  53.2144 274.9264 0001843  43.8216 316.2950 15.73228965  7687,6727.813,91.531,350.918,348.43800000000016,0.0
52370.0,STARLINK-3827,PAYLOAD,2022-06-01 20:00:01,15.73169905,0.0002011,53.2135,273.1871,30.6883,162.8101,0.00029206,0.00040515,0.0,0 STARLINK-3827,1 52370U 22045AR  22152.83334491  .00040515  00000-0  29206-3 0  9994,2 52370  53.2135 273.1871 0002011  30.6883 162.8101 15.73169905  7731,6727.981,91.535,351.199,348.49300000000005,0.0
52370.0,STARLINK-3827,PAYLOAD,2022-06-02 18:03:03,15.732916,0.0001871,53.2137,268.6383,63.9102,296.2111,0.00018933,0.00026138,0.0,0 STARLINK-3827,1 52370U 22045AR  22153.75211958  .00026138  00000-0  18933-3 0  9998,2 52370  53.2137 268.6383 0001871  63.9102 296.2111 15.73291600  7883,6727.634,91.528,350.7580000000001,348.24,0.0
52370.0,STARLINK-3827,PAYLOAD,2022-06-02 19:34:35,15.73180239,0.0001264999999999,53.2137,268.3236,28.2693,331.8396,-6.436300000000001e-05,-9.634e-05,0.0,0 STARLINK-3827,1 52370U 22045AR  22153.81568296 -.00009634  00000-0 -64363-4 0  9998,2 52370  53.2137 268.3236 0001265  28.2693 331.8396 15.73180239  7890,6727.9519999999975,91.534,350.668,348.965,0.0
52370.0,STARLINK-3827,PAYLOAD,2022-06-03 13:52:19,15.73224157,0.0002129,53.2139,264.5515,38.3127,321.8044,5.228800000000001e-05,6.731e-05,0.0,0 STARLINK-3827,1 52370U 22045AR  22154.57800616  .00006731  00000-0  52288-4 0  9993,2 52370  53.2139 264.5515 0002129  38.3127 321.8044 15.73224157  8016,6727.826,91.532,351.124,348.259,0.0
52370.0,STARLINK-3827,PAYLOAD,2022-06-03 18:26:46,15.73217375,0.0001758,53.214,263.6081,38.5695,321.545,3.6372e-05,4.49e-05,0.0,0 STARLINK-3827,1 52370U 22045AR  22154.76858969  .00004490  00000-0  36372-4 0  9994,2 52370  53.2140 263.6081 0001758  38.5695 321.5450 15.73217375  8040,6727.846,91.532,350.89300000000014,348.528,0.0
52370.0,STARLINK-3827,PAYLOAD,2022-06-04 12:45:31,15.7184078,0.0008068999999999,53.2135,259.8397,45.8478,314.3204,-0.002265,-0.00291193,0.0,0 STARLINK-3827,1 52370U 22045AR  22155.53162015 -.00291193  00000-0 -22650-2 0  9992,2 52370  53.2135 259.8397 0008069  45.8478 314.3204 15.71840780  8163,6731.773,91.612,359.07,348.206,0.0
52370.0,STARLINK-3827,PAYLOAD,2022-06-05 22:00:00,15.73235654,0.0002337,53.214,252.9792,25.0604,267.9288,-0.00048172,-0.00067798,0.0,0 STARLINK-3827,1 52370U 22045AR  22156.91667824 -.00067798  00000-0 -48172-3 0  9993,2 52370  53.2140 252.9792 0002337  25.0604 267.9288 15.73235654  8373,6727.794,91.531,351.231,348.086,0.0
52370.0,STARLINK-3827,PAYLOAD,2022-06-06 06:00:00,15.73204501,0.0002383,53.2176,251.3278,35.3385,346.332,2.5861e-06,-2.59e-06,0.0,0 STARLINK-3827,1 52370U 22045AR  22157.25001157 -.00000259  00000-0  25861-5 0  9992,2 52370  53.2176 251.3278 0002383  35.3385 346.3320 15.73204501  8438,6727.882,91.533,351.351,348.144,0.0
